start=new Date('2021-12-31T00:00:00.000Z').valueOf();
sats=[{"OBJECT_TYPE":"PAYLOAD","TLE_LINE2":"2 47400  53.0545  50.3519 0001299  80.4375 279.6761 15.06391660 52989","SITE":"AFETR","RA_OF_ASC_NODE":"50.3519","ELEMENT_SET_NO":"999","REF_FRAME":"TEME","OBJECT_NAME":"STARLINK-2122","OBJECT_ID":"2021-005BD","CLASSIFICATION_TYPE":"U","SEMIMAJOR_AXIS":"6925.374","INCLINATION":"53.0545","EPHEMERIS_TYPE":"0","MEAN_ELEMENT_THEORY":"SGP4","ECCENTRICITY":"0.00012990","MEAN_MOTION_DOT":"-0.00001299","PERIAPSIS":"546.340","BSTAR":"-0.00006834000000","RCS_SIZE":"LARGE","REV_AT_EPOCH":"5298","FILE":"3255240","MEAN_ANOMALY":"279.6761","APOAPSIS":"548.139","LAUNCH_DATE":"2021-01-20","NORAD_CAT_ID":"47400","EPOCH":"2021-12-30T14:54:40.421952","GP_ID":"192794410","MEAN_MOTION_DDOT":"0.0000000000000","ARG_OF_PERICENTER":"80.4375","DECAY_DATE":null,"TLE_LINE1":"1 47400U 21005BD  21364.62130118 -.00001299  00000-0 -68340-4 0  9999","TIME_SYSTEM":"UTC","MEAN_MOTION":"15.06391660","CENTER_NAME":"EARTH","COUNTRY_CODE":"US","PERIOD":"95.593"},{"FILE":"3255240","MEAN_ANOMALY":"282.6457","APOAPSIS":"548.229","LAUNCH_DATE":"2021-01-20","MEAN_MOTION_DOT":"-0.00000689","PERIAPSIS":"546.229","BSTAR":"-0.00002736200000","RCS_SIZE":"LARGE","REV_AT_EPOCH":"5284","NORAD_CAT_ID":"47401","EPOCH":"2021-12-30T13:45:42.243840","GP_ID":"192795160","MEAN_MOTION_DDOT":"0.0000000000000","ARG_OF_PERICENTER":"77.4694","MEAN_MOTION":"15.06394911","COUNTRY_CODE":"US","PERIOD":"95.592","CENTER_NAME":"EARTH","DECAY_DATE":null,"TIME_SYSTEM":"UTC","TLE_LINE1":"1 47401U 21005BE  21364.57340560 -.00000689  00000-0 -27362-4 0  9999","OBJECT_TYPE":"PAYLOAD","TLE_LINE2":"2 47401  53.0551  60.5847 0001444  77.4694 282.6457 15.06394911 52849","SITE":"AFETR","OBJECT_NAME":"STARLINK-2123","OBJECT_ID":"2021-005BE","RA_OF_ASC_NODE":"60.5847","REF_FRAME":"TEME","ELEMENT_SET_NO":"999","CLASSIFICATION_TYPE":"U","SEMIMAJOR_AXIS":"6925.364","INCLINATION":"53.0551","EPHEMERIS_TYPE":"0","MEAN_ELEMENT_THEORY":"SGP4","ECCENTRICITY":"0.00014440"},{"CLASSIFICATION_TYPE":"U","SEMIMAJOR_AXIS":"6925.382","INCLINATION":"53.0543","EPHEMERIS_TYPE":"0","MEAN_ELEMENT_THEORY":"SGP4","ECCENTRICITY":"0.00012200","TLE_LINE2":"2 47402  53.0543  60.1989 0001220  76.2734 283.8390 15.06389099 52859","OBJECT_TYPE":"PAYLOAD","SITE":"AFETR","RA_OF_ASC_NODE":"60.1989","ELEMENT_SET_NO":"999","REF_FRAME":"TEME","OBJECT_NAME":"STARLINK-2124","OBJECT_ID":"2021-005BF","NORAD_CAT_ID":"47402","EPOCH":"2021-12-30T15:47:47.387040","GP_ID":"192793908","MEAN_MOTION_DDOT":"0.0000000000000","ARG_OF_PERICENTER":"76.2734","DECAY_DATE":null,"TLE_LINE1":"1 47402U 21005BF  21364.65818735 -.00001801  00000-0 -10209-3 0  9991","TIME_SYSTEM":"UTC","MEAN_MOTION":"15.06389099","COUNTRY_CODE":"US","CENTER_NAME":"EARTH","PERIOD":"95.593","MEAN_MOTION_DOT":"-0.00001801","PERIAPSIS":"546.402","BSTAR":"-0.00010209000000","RCS_SIZE":"LARGE","REV_AT_EPOCH":"5285","FILE":"3255240","MEAN_ANOMALY":"283.8390","APOAPSIS":"548.092","LAUNCH_DATE":"2021-01-20"},{"ECCENTRICITY":"0.00014600","MEAN_ELEMENT_THEORY":"SGP4","EPHEMERIS_TYPE":"0","INCLINATION":"53.0550","SEMIMAJOR_AXIS":"6925.378","CLASSIFICATION_TYPE":"U","OBJECT_ID":"2021-005BG","OBJECT_NAME":"STARLINK-2127","REF_FRAME":"TEME","ELEMENT_SET_NO":"999","RA_OF_ASC_NODE":"60.7735","SITE":"AFETR","OBJECT_TYPE":"PAYLOAD","TLE_LINE2":"2 47403  53.0550  60.7735 0001460  86.9644 273.1512 15.06390513 52836","COUNTRY_CODE":"US","CENTER_NAME":"EARTH","PERIOD":"95.593","MEAN_MOTION":"15.06390513","TLE_LINE1":"1 47403U 21005BG  21364.53286465 -.00000993  00000-0 -47806-4 0  9993","TIME_SYSTEM":"UTC","DECAY_DATE":null,"ARG_OF_PERICENTER":"86.9644","MEAN_MOTION_DDOT":"0.0000000000000","GP_ID":"192770210","EPOCH":"2021-12-30T12:47:19.505760","NORAD_CAT_ID":"47403","LAUNCH_DATE":"2021-01-20","APOAPSIS":"548.254","MEAN_ANOMALY":"273.1512","FILE":"3255239","REV_AT_EPOCH":"5283","RCS_SIZE":"LARGE","BSTAR":"-0.00004780600000","MEAN_MOTION_DOT":"-0.00000993","PERIAPSIS":"546.232"},{"MEAN_ELEMENT_THEORY":"SGP4","ECCENTRICITY":"0.00013560","EPHEMERIS_TYPE":"0","SEMIMAJOR_AXIS":"6925.382","INCLINATION":"53.0548","CLASSIFICATION_TYPE":"U","ELEMENT_SET_NO":"999","REF_FRAME":"TEME","RA_OF_ASC_NODE":"60.1919","OBJECT_ID":"2021-005BH","OBJECT_NAME":"STARLINK-2128","TLE_LINE2":"2 47404  53.0548  60.1919 0001356  61.4868 298.6257 15.06389017 52859","OBJECT_TYPE":"PAYLOAD","SITE":"AFETR","TLE_LINE1":"1 47404U 21005BH  21364.66187979  .00000272  00000-0  37178-4 0  9997","TIME_SYSTEM":"UTC","DECAY_DATE":null,"MEAN_MOTION":"15.06389017","CENTER_NAME":"EARTH","COUNTRY_CODE":"US","PERIOD":"95.593","GP_ID":"192794910","MEAN_MOTION_DDOT":"0.0000000000000","ARG_OF_PERICENTER":"61.4868","NORAD_CAT_ID":"47404","EPOCH":"2021-12-30T15:53:06.413856","RCS_SIZE":"LARGE","REV_AT_EPOCH":"5285","MEAN_MOTION_DOT":"0.00000272","PERIAPSIS":"546.308","BSTAR":"0.00003717800000","APOAPSIS":"548.186","LAUNCH_DATE":"2021-01-20","FILE":"3255240","MEAN_ANOMALY":"298.6257"},{"REV_AT_EPOCH":"5243","RCS_SIZE":"LARGE","BSTAR":"0.00005733100000","MEAN_MOTION_DOT":"0.00000573","PERIAPSIS":"546.343","LAUNCH_DATE":"2021-01-20","APOAPSIS":"548.114","MEAN_ANOMALY":"281.4192","FILE":"3255240","TIME_SYSTEM":"UTC","TLE_LINE1":"1 47405U 21005BJ  21364.71070671  .00000573  00000-0  57331-4 0  9991","DECAY_DATE":null,"COUNTRY_CODE":"US","CENTER_NAME":"EARTH","PERIOD":"95.592","MEAN_MOTION":"15.06395111","ARG_OF_PERICENTER":"78.6940","MEAN_MOTION_DDOT":"0.0000000000000","GP_ID":"192794661","EPOCH":"2021-12-30T17:03:25.059744","NORAD_CAT_ID":"47405","ELEMENT_SET_NO":"999","REF_FRAME":"TEME","RA_OF_ASC_NODE":"89.9841","OBJECT_ID":"2021-005BJ","OBJECT_NAME":"STARLINK-2130","SITE":"AFETR","OBJECT_TYPE":"PAYLOAD","TLE_LINE2":"2 47405  53.0471  89.9841 0001279  78.6940 281.4192 15.06395111 52437","ECCENTRICITY":"0.00012790","MEAN_ELEMENT_THEORY":"SGP4","EPHEMERIS_TYPE":"0","INCLINATION":"53.0471","SEMIMAJOR_AXIS":"6925.364","CLASSIFICATION_TYPE":"U"},{"APOAPSIS":"548.194","LAUNCH_DATE":"2021-01-20","FILE":"3255240","MEAN_ANOMALY":"276.7790","RCS_SIZE":"LARGE","REV_AT_EPOCH":"5285","MEAN_MOTION_DOT":"-0.00001913","PERIAPSIS":"546.300","BSTAR":"-0.00010961000000","GP_ID":"192793409","MEAN_MOTION_DDOT":"0.0000000000000","ARG_OF_PERICENTER":"83.3355","NORAD_CAT_ID":"47406","EPOCH":"2021-12-30T16:09:01.129536","MEAN_MOTION":"15.06389123","PERIOD":"95.593","COUNTRY_CODE":"US","CENTER_NAME":"EARTH","TLE_LINE1":"1 47406U 21005BK  21364.67292974 -.00001913  00000-0 -10961-3 0  9997","TIME_SYSTEM":"UTC","DECAY_DATE":null,"TLE_LINE2":"2 47406  53.0554  60.1264 0001368  83.3355 276.7790 15.06389123 52855","OBJECT_TYPE":"PAYLOAD","SITE":"AFETR","OBJECT_ID":"2021-005BK","OBJECT_NAME":"STARLINK-2133","ELEMENT_SET_NO":"999","REF_FRAME":"TEME","RA_OF_ASC_NODE":"60.1264","SEMIMAJOR_AXIS":"6925.382","INCLINATION":"53.0554","CLASSIFICATION_TYPE":"U","MEAN_ELEMENT_THEORY":"SGP4","ECCENTRICITY":"0.00013680","EPHEMERIS_TYPE":"0"},{"OBJECT_TYPE":"PAYLOAD","TLE_LINE2":"2 47407  53.0555  60.7080 0001355  86.4030 273.7114 15.06387959 52839","SITE":"AFETR","OBJECT_ID":"2021-005BL","OBJECT_NAME":"STARLINK-2134","ELEMENT_SET_NO":"999","REF_FRAME":"TEME","RA_OF_ASC_NODE":"60.7080","SEMIMAJOR_AXIS":"6925.385","INCLINATION":"53.0555","CLASSIFICATION_TYPE":"U","MEAN_ELEMENT_THEORY":"SGP4","ECCENTRICITY":"0.00013550","EPHEMERIS_TYPE":"0","APOAPSIS":"548.189","LAUNCH_DATE":"2021-01-20","FILE":"3255240","MEAN_ANOMALY":"273.7114","RCS_SIZE":"LARGE","REV_AT_EPOCH":"5283","PERIAPSIS":"546.312","MEAN_MOTION_DOT":"0.00001569","BSTAR":"0.00012422000000","GP_ID":"192794159","MEAN_MOTION_DDOT":"0.0000000000000","ARG_OF_PERICENTER":"86.4030","NORAD_CAT_ID":"47407","EPOCH":"2021-12-30T13:08:33.626688","MEAN_MOTION":"15.06387959","COUNTRY_CODE":"US","PERIOD":"95.593","CENTER_NAME":"EARTH","TLE_LINE1":"1 47407U 21005BL  21364.54761142  .00001569  00000-0  12422-3 0  9991","TIME_SYSTEM":"UTC","DECAY_DATE":null},{"SITE":"AFETR","OBJECT_TYPE":"PAYLOAD","TLE_LINE2":"2 47408  53.0555  60.2263 0001397  80.7798 279.3349 15.06387816 52858","ELEMENT_SET_NO":"999","REF_FRAME":"TEME","RA_OF_ASC_NODE":"60.2263","OBJECT_ID":"2021-005BM","OBJECT_NAME":"STARLINK-2135","INCLINATION":"53.0555","SEMIMAJOR_AXIS":"6925.386","CLASSIFICATION_TYPE":"U","ECCENTRICITY":"0.00013970","MEAN_ELEMENT_THEORY":"SGP4","EPHEMERIS_TYPE":"0","REV_AT_EPOCH":"5285","RCS_SIZE":"LARGE","BSTAR":"-0.00013816000000","PERIAPSIS":"546.283","MEAN_MOTION_DOT":"-0.00002338","LAUNCH_DATE":"2021-01-20","APOAPSIS":"548.218","MEAN_ANOMALY":"279.3349","FILE":"3255240","ARG_OF_PERICENTER":"80.7798","GP_ID":"192794411","MEAN_MOTION_DDOT":"0.0000000000000","EPOCH":"2021-12-30T15:37:10.260480","NORAD_CAT_ID":"47408","TIME_SYSTEM":"UTC","TLE_LINE1":"1 47408U 21005BM  21364.65081320 -.00002338  00000-0 -13816-3 0  9992","DECAY_DATE":null,"CENTER_NAME":"EARTH","COUNTRY_CODE":"US","PERIOD":"95.593","MEAN_MOTION":"15.06387816"},{"OBJECT_NAME":"STARLINK-2200","OBJECT_ID":"2021-006B","RA_OF_ASC_NODE":"68.9343","REF_FRAME":"TEME","ELEMENT_SET_NO":"999","OBJECT_TYPE":"PAYLOAD","TLE_LINE2":"2 47414  97.4732  68.9343 0004474 205.6212 120.6145 15.89651996  3690","SITE":"AFETR","EPHEMERIS_TYPE":"0","MEAN_ELEMENT_THEORY":"SGP4","ECCENTRICITY":"0.00044740","CLASSIFICATION_TYPE":"U","SEMIMAJOR_AXIS":"6681.395","INCLINATION":"97.4732","FILE":"3255240","MEAN_ANOMALY":"120.6145","APOAPSIS":"306.249","LAUNCH_DATE":"2021-01-24","MEAN_MOTION_DOT":"0.00034336","PERIAPSIS":"300.271","BSTAR":"0.00011986000000","RCS_SIZE":"LARGE","REV_AT_EPOCH":"369","MEAN_MOTION":"15.89651996","CENTER_NAME":"EARTH","COUNTRY_CODE":"US","PERIOD":"90.586","DECAY_DATE":null,"TIME_SYSTEM":"UTC","TLE_LINE1":"1 47414U 21006B   21365.00001157  .00034336  27294-5  11986-3 0  9996","NORAD_CAT_ID":"47414","EPOCH":"2021-12-31T00:00:00.999648","MEAN_MOTION_DDOT":"0.0000027294000","GP_ID":"192795161","ARG_OF_PERICENTER":"205.6212"}];
